{
    "links": {
        "self": "http://www.neowsapp.com/rest/v1/neo/3601281?api_key=iIulBulltgU6a56xZRHN4H3l9WmuAYTsLGpBGhQ2"
    },
    "id": "3601281",
    "neo_reference_id": "3601281",
    "name": "(2012 EM5)",
    "designation": "2012 EM5",
    "nasa_jpl_url": "http://ssd.jpl.nasa.gov/sbdb.cgi?sstr=3601281",
    "absolute_magnitude_h": 25.3,
    "estimated_diameter": {
        "kilometers": {
            "estimated_diameter_min": 0.0231502122,
            "estimated_diameter_max": 0.0517654482
        },
        "meters": {
            "estimated_diameter_min": 23.150212221,
            "estimated_diameter_max": 51.7654482198
        },
        "miles": {
            "estimated_diameter_min": 0.0143848705,
            "estimated_diameter_max": 0.0321655483
        },
        "feet": {
            "estimated_diameter_min": 75.9521422633,
            "estimated_diameter_max": 169.8341531374
        }
    },
    "is_potentially_hazardous_asteroid": false,
    "close_approach_data": [
        {
            "close_approach_date": "2012-03-12",
            "close_approach_date_full": "2012-Mar-12 22:24",
            "epoch_date_close_approach": 1331591040000,
            "relative_velocity": {
                "kilometers_per_second": "22.4507760806",
                "kilometers_per_hour": "80822.7938902273",
                "miles_per_hour": "50220.141014736"
            },
            "miss_distance": {
                "astronomical": "0.0144558377",
                "lunar": "5.6233208653",
                "kilometers": "2162562.528985699",
                "miles": "1343754.0448086862"
            },
            "orbiting_body": "Earth"
        }
    ],
    "orbital_data": {
        "orbit_id": "6",
        "orbit_determination_date": "2017-04-06 08:50:35",
        "first_observation_date": "2012-03-14",
        "last_observation_date": "2012-03-14",
        "data_arc_in_days": null,
        "observations_used": 45,
        "orbit_uncertainty": "8",
        "minimum_orbit_intersection": ".0137796",
        "jupiter_tisserand_invariant": "3.635",
        "epoch_osculation": "2456001.5",
        "eccentricity": ".6157880274086684",
        "semi_major_axis": "1.851059019117114",
        "inclination": "28.76824102969379",
        "ascending_node_longitude": "353.3987554960309",
        "orbital_period": "919.875021068759",
        "perihelion_distance": ".7111990371179615",
        "perihelion_argument": "102.4582816929181",
        "aphelion_distance": "2.990919001116266",
        "perihelion_time": "2455952.544260803274",
        "mean_anomaly": "19.15919631163024",
        "mean_motion": ".3913575124387367",
        "equinox": "J2000",
        "orbit_class": {
            "orbit_class_type": "APO",
            "orbit_class_description": "Near-Earth asteroid orbits which cross the Earth’s orbit similar to that of 1862 Apollo",
            "orbit_class_range": "a (semi-major axis) > 1.0 AU; q (perihelion) < 1.017 AU"
        }
    },
    "is_sentry_object": false
}